COSMOS 2058             
1 20465U 90010A   26169.78993669  .00003309  00000+0  19088-3 0  9991
2 20465  82.4689 307.7740 0009002 354.3588   5.7539 15.12024564957517
SL-14 R/B               
1 20466U 90010B   26169.71905408  .00000282  00000+0  31211-4 0  9999
2 20466  82.5015 172.5062 0018965 331.0714  28.9448 14.83647046943466
SL-14 R/B               
1 20511U 90018B   26169.90162642  .00000312  00000+0  36005-4 0  9994
2 20511  82.5210 128.5051 0017536 116.5105 243.7910 14.82217065937575
HST                     
1 20580U 90037B   26169.77310657  .00005163  00000+0  16118-3 0  9998
2 20580  28.4721  69.7363 0001745 159.6113 200.4553 15.30761668788812
SL-16 R/B               
1 20625U 90046B   26169.92752206  .00000046  00000+0  48233-4 0  9994
2 20625  71.0001  85.2930 0013205 159.1622 201.0042 14.15027106862710
COSMOS 2084             
1 20663U 90055A   26169.78772279  .00001618  00000+0  12382-3 0  9993
2 20663  62.7899 350.6279 0005630 281.5674  78.4795 15.06121601951546
SL-6 R/B(2)             
1 20666U 90055D   26169.57852198  .00001167  00000+0  97372-4 0  9994
2 20666  62.7823 270.6419 0040880   5.3426 354.8101 15.04006872953360
SL-8 R/B                
1 20775U 90078B   26169.73715621  .00020718  00000+0  58436-3 0  9997
2 20775  82.9021 160.2451 0350503  33.2602 329.0117 14.92384085824355
SL-8 R/B                
1 21088U 91006B   26169.80509794  .00000061  00000+0  45168-4 0  9995
2 21088  82.9425  94.8302 0023746 110.2729 303.5611 13.77505981777995
OKEAN-3                 
1 21397U 91039A   26169.93337946  .00002334  00000+0  16086-3 0  9997
2 21397  82.5162 238.6882 0013901 351.6426   8.4567 15.05331808880264
COSMOS 2151             
1 21422U 91042A   26169.92701314  .00001055  00000+0  81543-4 0  9993
2 21422  82.4961 346.0017 0013788  78.8205 281.4569 15.00442178878371
SL-14 R/B               
1 21423U 91042B   26169.97603452  .00000288  00000+0  33469-4 0  9994
2 21423  82.4928 125.2180 0015414 268.3943  91.5505 14.81903405868075
ERS-1                   
1 21574U 91050A   26169.97200827  .00000151  00000+0  63220-4 0  9996
2 21574  98.7796 190.7137 0030715 261.4497  98.3209 14.39518120830303
ARIANE 40 R/B           
1 21610U 91050F   26169.71324763  .00000211  00000+0  75610-4 0  9998
2 21610  98.1875 218.0707 0004291 118.5347 241.6277 14.42957889833561
INTERCOSMOS 25          
1 21819U 91086A   26169.92759821  .00000775  00000+0  15450-3 0  9998
2 21819  82.6051 248.7566 1483970 258.6361  84.4927 12.12197967508952
SL-8 R/B                
1 21876U 92008B   26169.82098856  .00000129  00000+0  11730-3 0  9999
2 21876  82.9261 192.5728 0033940 210.0245 323.2998 13.75977391723326
SL-8 R/B                
1 21938U 92020B   26169.79980025  .00000078  00000+0  65089-4 0  9996
2 21938  82.9305  78.6597 0029623  18.1617  42.9375 13.75549039715032
USA 81                  
1 21949U 92023A   26169.74183114  .00000145  00000+0  46218-4 0  9998
2 21949  85.0074  73.1103 0002753  83.3128 276.8378 14.32398597109257
COSMOS 2219             
1 22219U 92076A   26169.74684822  .00000309  00000+0  18699-3 0  9992
2 22219  71.0580 166.8112 0016678  41.5398 318.6989 14.14100117732660
SL-16 R/B               
1 22220U 92076B   26169.94634108  .00000248  00000+0  14760-3 0  9995
2 22220  71.0006 335.0751 0014714 296.3325 177.1443 14.16873119736177
COSMOS 2221             
1 22236U 92080A   26169.74372253  .00001088  00000+0  93240-4 0  9999
2 22236  82.5029 182.2733 0013401 206.7149 153.3384 14.96536528795903
SL-16 R/B               
1 22285U 92093B   26169.93851031 -.00000248  00000+0 -10248-3 0  9999
2 22285  71.0196 151.7146 0003863 185.1667 174.9417 14.15460451727486
COSMOS 2228             
1 22286U 92094A   26169.89170726  .00001547  00000+0  12988-3 0  9995
2 22286  82.5174 140.4100 0016754 326.3343  33.6814 14.97591739791205
SL-16 R/B               
1 22566U 93016B   26169.91877458  .00000175  00000+0  11438-3 0  9995
2 22566  71.0085   2.5700 0010103 181.0726 179.0377 14.15315030716492
COSMOS 2242             
1 22626U 93024A   26169.71823695  .00001299  00000+0  11070-3 0  9993
2 22626  82.5179 170.0780 0015221 330.8654  29.1717 14.96907488795504
SL-16 R/B               
1 22803U 93059B   26169.97209841 -.00000163  00000+0 -56817-4 0  9997
2 22803  70.9886 157.5396 0015277  50.9246 309.3234 14.17248126693883
ARIANE 40 R/B           
1 22830U 93061H   26169.74161589  .00000135  00000+0  65193-4 0  9995
2 22830  98.4819 236.5664 0010356 351.6287   8.4723 14.32908509708577
COSMOS 2278             
1 23087U 94023A   26169.73209030  .00000038  00000+0  44258-4 0  9993
2 23087  71.0550 323.6923 0010606 241.6194 118.3860 14.14398523659094
SL-16 R/B               
1 23088U 94023B   26169.87455348  .00000179  00000+0  11677-3 0  9998
2 23088  70.9993 218.3878 0002645 185.7838 174.3255 14.15026263660407
SL-16 R/B               
1 23343U 94074B   26169.85909742  .00000299  00000+0  46518-4 0  9994
2 23343  97.6989 196.5105 0005189 246.4697 286.3917 14.79503501702205
