OBJECT_NAME,OBJECT_ID,EPOCH,MEAN_MOTION,ECCENTRICITY,INCLINATION,RA_OF_ASC_NODE,ARG_OF_PERICENTER,MEAN_ANOMALY,EPHEMERIS_TYPE,CLASSIFICATION_TYPE,NORAD_CAT_ID,ELEMENT_SET_NO,REV_AT_EPOCH,BSTAR,MEAN_MOTION_DOT,MEAN_MOTION_DDOT
COSMOS 2058,1990-010A,2026-06-18T18:57:30.530016,15.12024564,.00090024,82.4689,307.7740,354.3588,5.7539,0,U,20465,999,95751,.19087683E-3,.3309E-4,0
SL-14 R/B,1990-010B,2026-06-18T17:15:26.272512,14.83647046,.00189657,82.5015,172.5062,331.0714,28.9448,0,U,20466,999,94346,.31210655E-4,.282E-5,0
SL-14 R/B,1990-018B,2026-06-18T21:38:20.522688,14.82217065,.00175367,82.5210,128.5051,116.5105,243.7910,0,U,20511,999,93757,.36004662E-4,.312E-5,0
HST,1990-037B,2026-06-18T18:33:16.407648,15.30761668,.00017453,28.4721,69.7363,159.6113,200.4553,0,U,20580,999,78881,.1611774E-3,.5163E-4,0
SL-16 R/B,1990-046B,2026-06-18T22:15:37.905984,14.15027106,.00132053,71.0001,85.2930,159.1622,201.0042,0,U,20625,999,86271,.48233285E-4,.46E-6,0
COSMOS 2084,1990-055A,2026-06-18T18:54:19.249056,15.06121601,.00056304,62.7899,350.6279,281.5674,78.4795,0,U,20663,999,95154,.12381726E-3,.1618E-4,0
SL-6 R/B(2),1990-055D,2026-06-18T13:53:04.299072,15.04006872,.004088,62.7823,270.6419,5.3426,354.8101,0,U,20666,999,95336,.97372E-4,.1167E-4,0
SL-8 R/B,1990-078B,2026-06-18T17:41:30.296544,14.92384085,.03505031,82.9021,160.2451,33.2602,329.0117,0,U,20775,999,82435,.58435756E-3,.20718E-3,0
SL-8 R/B,1991-006B,2026-06-18T19:19:20.462016,13.77505981,.00237461,82.9425,94.8302,110.2729,303.5611,0,U,21088,999,77799,.4516786E-4,.61E-6,0
OKEAN-3,1991-039A,2026-06-18T22:24:03.985344,15.05331808,.00139019,82.5162,238.6882,351.6426,8.4567,0,U,21397,999,88026,.16085651E-3,.2334E-4,0
COSMOS 2151,1991-042A,2026-06-18T22:14:53.935296,15.00442178,.0013788,82.4961,346.0017,78.8205,281.4569,0,U,21422,999,87837,.8154272E-4,.1055E-4,0
SL-14 R/B,1991-042B,2026-06-18T23:25:29.382528,14.81903405,.00154144,82.4928,125.2180,268.3943,91.5505,0,U,21423,999,86807,.33468739E-4,.288E-5,0
ERS-1,1991-050A,2026-06-18T23:19:41.514528,14.39518120,.0030715,98.7796,190.7137,261.4497,98.3209,0,U,21574,999,83030,.63219654E-4,.151E-5,0
ARIANE 40 R/B,1991-050F,2026-06-18T17:07:04.595232,14.42957889,.00042917,98.1875,218.0707,118.5347,241.6277,0,U,21610,999,83356,.75609799E-4,.211E-5,0
INTERCOSMOS 25,1991-086A,2026-06-18T22:15:44.485344,12.12197967,.14839702,82.6051,248.7566,258.6361,84.4927,0,U,21819,999,50895,.15449793E-3,.775E-5,0
SL-8 R/B,1992-008B,2026-06-18T19:42:13.411584,13.75977391,.00339409,82.9261,192.5728,210.0245,323.2998,0,U,21876,999,72332,.11729891E-3,.129E-5,0
SL-8 R/B,1992-020B,2026-06-18T19:11:42.741600,13.75549039,.00296238,82.9305,78.6597,18.1617,42.9375,0,U,21938,999,71503,.65089213E-4,.78E-6,0
USA 81,1992-023A,2026-06-18T17:48:14.210496,14.32398597,.00027531,85.0074,73.1103,83.3128,276.8378,0,U,21949,999,10925,.46217654E-4,.145E-5,0
COSMOS 2219,1992-076A,2026-06-18T17:55:27.686208,14.14100117,.00166782,71.0580,166.8112,41.5398,318.6989,0,U,22219,999,73266,.18698926E-3,.309E-5,0
SL-16 R/B,1992-076B,2026-06-18T22:42:43.869312,14.16873119,.00147146,71.0006,335.0751,296.3325,177.1443,0,U,22220,999,73617,.14759681E-3,.248E-5,0
COSMOS 2221,1992-080A,2026-06-18T17:50:57.626592,14.96536528,.00134011,82.5029,182.2733,206.7149,153.3384,0,U,22236,999,79590,.93240154E-4,.1088E-4,0
SL-16 R/B,1992-093B,2026-06-18T22:31:27.290784,14.15460451,.00038639,71.0196,151.7146,185.1667,174.9417,0,U,22285,999,72748,-.10247522E-3,-.248E-5,0
COSMOS 2228,1992-094A,2026-06-18T21:24:03.507264,14.97591739,.00167544,82.5174,140.4100,326.3343,33.6814,0,U,22286,999,79120,.12987971E-3,.1547E-4,0
SL-16 R/B,1993-016B,2026-06-18T22:03:02.123712,14.15315030,.00101031,71.0085,2.5700,181.0726,179.0377,0,U,22566,999,71649,.11437824E-3,.175E-5,0
COSMOS 2242,1993-024A,2026-06-18T17:14:15.672480,14.96907488,.00152216,82.5179,170.0780,330.8654,29.1717,0,U,22626,999,79550,.11070133E-3,.1299E-4,0
SL-16 R/B,1993-059B,2026-06-18T23:19:49.302624,14.17248126,.00152772,70.9886,157.5396,50.9246,309.3234,0,U,22803,999,69388,-.5681675E-4,-.163E-5,0
ARIANE 40 R/B,1993-061H,2026-06-18T17:47:55.612896,14.32908509,.00103568,98.4819,236.5664,351.6287,8.4723,0,U,22830,999,70857,.651925E-4,.135E-5,0
COSMOS 2278,1994-023A,2026-06-18T17:34:12.601920,14.14398523,.00106069,71.0550,323.6923,241.6194,118.3860,0,U,23087,999,65909,.44257596E-4,.38E-6,0
SL-16 R/B,1994-023B,2026-06-18T20:59:21.420672,14.15026263,.00026454,70.9993,218.3878,185.7838,174.3255,0,U,23088,999,66040,.11677057E-3,.179E-5,0
SL-16 R/B,1994-074B,2026-06-18T20:37:06.017088,14.79503501,.00051898,97.6989,196.5105,246.4697,286.3917,0,U,23343,999,70220,.4651816E-4,.299E-5,0
